COMMENT,ORIGINATOR,NORAD_CAT_ID,OBJECT_NAME,OBJECT_TYPE,CLASSIFICATION_TYPE,INTLDES,EPOCH,EPOCH_MICROSECONDS,MEAN_MOTION,ECCENTRICITY,INCLINATION,RA_OF_ASC_NODE,ARG_OF_PERICENTER,MEAN_ANOMALY,EPHEMERIS_TYPE,ELEMENT_SET_NO,REV_AT_EPOCH,BSTAR,MEAN_MOTION_DOT,MEAN_MOTION_DDOT,FILE,TLE_LINE0,TLE_LINE1,TLE_LINE2,OBJECT_ID,OBJECT_NUMBER,SEMIMAJOR_AXIS,PERIOD,APOGEE,PERIGEE,DECAYED
GENERATED VIA SPACETRACK.ORG API,18 SPCS,57309,STARLINK-30163,PAYLOAD,U,23096V,2025-11-30 16:00:01,999584,15.870679688,0.0026949992,42.980214,332.23784,110.98153,308.44771,0,999,595,0.0012378771,0.0033989436,0.000049087701,4909172,0 STARLINK-30163,1 57309U 23096V   25334.66668981  .00339894  49088-4  12379-2 0  9994,2 57309  42.9802 332.2378 0026950 110.9815 308.4477 15.87067969  5956,2023-096V,57309,6688.645,90.733,328.536,292.484,1
GENERATED VIA SPACETRACK.ORG API,18 SPCS,57309,STARLINK-30163,PAYLOAD,U,23096V,2025-11-30 20:00:03,384,15.87162271,0.0027073,42.9799,331.2082,112.6351,180.3188,0,999,598,0.0013793,0.00380877,0.000059893,4909698,0 STARLINK-30163,1 57309U 23096V   25334.83336806  .00380877  59893-4  13793-2 0  9994,2 57309  42.9799 331.2082 0027073 112.6351 180.3188 15.87162271  5984,2023-096V,57309,6688.380,90.728,328.353,292.138,1
GENERATED VIA SPACETRACK.ORG API,18 SPCS,57309,STARLINK-30163,PAYLOAD,U,23096V,2025-12-01 00:00:02,160,15.872815528,0.0027270838,42.979726,330.17911,113.77164,52.61543,0,999,596,0.0012851956,0.0035706139,0.000053541781,4909928,0 STARLINK-30163,1 57309U 23096V   25335.00002315  .00357061  53542-4  12852-2 0  9998,2 57309  42.9797 330.1791 0027271 113.7716  52.6154 15.87281553  5961,2023-096V,57309,6688.045,90.721,328.149,291.671,1
GENERATED VIA SPACETRACK.ORG API,18 SPCS,57309,STARLINK-30163,PAYLOAD,U,23096V,2025-12-01 08:00:08,352,15.875078923,0.002711995,42.979531,328.12183,115.83537,158.1986,0,999,591,0.001409782,0.0039624225,0.000064506754,4909947,0 STARLINK-30163,1 57309U 23096V   25335.33342593  .00396242  64507-4  14098-2 0  9990,2 57309  42.9795 328.1218 0027120 115.8354 158.1986 15.87507892  5911,2023-096V,57309,6687.409,90.708,327.411,291.138,1
GENERATED VIA SPACETRACK.ORG API,18 SPCS,57309,STARLINK-30163,PAYLOAD,U,23096V,2025-12-01 12:00:05,998752,15.87631124,0.0026919,42.9796,327.091,117.182,30.446,0,999,594,0.0014978,0.00423537,0.000072898,4910458,0 STARLINK-30163,1 57309U 23096V   25335.50006943  .00423537  72898-4  14978-2 0  9992,2 57309  42.9796 327.0910 0026919 117.1820  30.4460 15.87631124  5945,2023-096V,57309,6687.063,90.701,326.929,290.927,1
GENERATED VIA SPACETRACK.ORG API,18 SPCS,57309,STARLINK-30163,PAYLOAD,U,23096V,2025-12-01 16:00:03,999744,15.877858946,0.0026943422,42.979924,326.05824,118.83808,262.45045,0,999,596,0.001203739,0.0034267364,0.000050130019,4911537,0 STARLINK-30163,1 57309U 23096V   25335.66671296  .00342674  50130-4  12037-2 0  9999,2 57309  42.9799 326.0582 0026943 118.8381 262.4505 15.87785895  5963,2023-096V,57309,6686.629,90.692,326.510,290.478,1
GENERATED VIA SPACETRACK.ORG API,18 SPCS,57309,STARLINK-30163,PAYLOAD,U,23096V,2025-12-01 20:00:01,999008,15.87876699,0.0027032,42.9797,325.0276,120.4087,134.6391,0,999,599,0.0013825,0.00395769,0.000064616,4911346,0 STARLINK-30163,1 57309U 23096V   25335.83335647  .00395769  64616-4  13825-2 0  9998,2 57309  42.9797 325.0276 0027032 120.4087 134.6391 15.87876699  5991,2023-096V,57309,6686.374,90.687,326.313,290.164,1
GENERATED VIA SPACETRACK.ORG API,18 SPCS,57309,STARLINK-30163,PAYLOAD,U,23096V,2025-12-02 04:00:03,998880,15.88196441,0.0026916,42.9794,322.9684,122.6098,240.5506,0,999,593,0.00095571,0.00277314,0.000035587,4911982,0 STARLINK-30163,1 57309U 23096V   25336.16671295  .00277314  35587-4  95571-3 0  9996,2 57309  42.9794 322.9684 0026916 122.6098 240.5506 15.88196441  5933,2023-096V,57309,6685.476,90.669,325.336,289.347,1
GENERATED VIA SPACETRACK.ORG API,18 SPCS,57309,STARLINK-30163,PAYLOAD,U,23096V,2025-12-02 08:00:03,384,15.882724394,0.0027037077,42.979676,321.9379,123.5064,113.72702,0,999,596,0.0015853734,0.0046335577,0.000086740311,4912329,0 STARLINK-30163,1 57309U 23096V   25336.33336806  .00463356  86740-4  15854-2 0  9996,2 57309  42.9797 321.9379 0027037 123.5064 113.7270 15.88272439  5968,2023-096V,57309,6685.263,90.665,325.203,289.053,1
GENERATED VIA SPACETRACK.ORG API,18 SPCS,57309,STARLINK-30163,PAYLOAD,U,23096V,2025-12-02 12:00:05,998752,15.88459178,0.0026959,42.9793,320.9045,124.9143,346.7029,0,999,598,0.0012336,0.00363494,0.000055898,4912792,0 STARLINK-30163,1 57309U 23096V   25336.50006943  .00363494  55898-4  12336-2 0  9995,2 57309  42.9793 320.9045 0026959 124.9143 346.7029 15.88459178  5987,2023-096V,57309,6684.739,90.654,324.626,288.583,1
GENERATED VIA SPACETRACK.ORG API,18 SPCS,57309,STARLINK-30163,PAYLOAD,U,23096V,2025-12-02 16:00:03,96,15.885850617,0.0026966007,42.979558,319.87133,126.6477,219.05189,0,999,596,0.0012677034,0.0037602736,0.00005941258,4913875,0 STARLINK-30163,1 57309U 23096V   25336.66670139  .00376027  59413-4  12677-2 0  9997,2 57309  42.9796 319.8713 0026966 126.6477 219.0519 15.88585062  5962,2023-096V,57309,6684.386,90.647,324.276,288.226,1
GENERATED VIA SPACETRACK.ORG API,18 SPCS,57309,STARLINK-30163,PAYLOAD,U,23096V,2025-12-02 20:00:03,384,15.88687848,0.0027073,42.9791,318.8395,128.0407,92.0354,0,999,599,0.0014462,0.00431634,0.000076343,4913605,0 STARLINK-30163,1 57309U 23096V   25336.83336806  .00431634  76343-4  14462-2 0  9997,2 57309  42.9791 318.8395 0027073 128.0407  92.0354 15.88687848  5995,2023-096V,57309,6684.098,90.641,324.059,287.867,1
GENERATED VIA SPACETRACK.ORG API,18 SPCS,57309,STARLINK-30163,PAYLOAD,U,23096V,2025-12-03 04:00:01,998720,15.88960431,0.0027106,42.9789,316.7785,130.3284,198.6207,0,999,598,0.0012754,0.00385813,0.000062435,4914393,0 STARLINK-30163,1 57309U 23096V   25337.16668980  .00385813  62435-4  12754-2 0  9991,2 57309  42.9789 316.7785 0027106 130.3284 198.6207 15.88960431  5989,2023-096V,57309,6683.333,90.625,323.314,287.082,1
GENERATED VIA SPACETRACK.ORG API,18 SPCS,57309,STARLINK-30163,PAYLOAD,U,23096V,2025-12-03 08:00:01,999872,15.89091534,0.0026999966,42.979229,315.74669,131.28258,72.295247,0,999,596,0.0015841907,0.0048276658,0.000094596366,4914710,0 STARLINK-30163,1 57309U 23096V   25337.33335648  .00482767  94596-4  15842-2 0  9992,2 57309  42.9792 315.7467 0027000 131.2826  72.2952 15.89091534  5966,2023-096V,57309,6682.966,90.618,322.875,286.787,1
GENERATED VIA SPACETRACK.ORG API,18 SPCS,57309,STARLINK-30163,PAYLOAD,U,23096V,2025-12-03 12:00:02,998944,15.89259546,0.0026882,42.9792,314.7121,132.7996,305.5306,0,999,598,0.0015066,0.00462898,0.000087526,4915033,0 STARLINK-30163,1 57309U 23096V   25337.50003471  .00462898  87526-4  15066-2 0  9993,2 57309  42.9792 314.7121 0026882 132.7996 305.5306 15.89259546  5989,2023-096V,57309,6682.495,90.608,322.324,286.396,1
GENERATED VIA SPACETRACK.ORG API,18 SPCS,57309,STARLINK-30163,PAYLOAD,U,23096V,2025-12-03 20:00:01,999008,15.89542667,0.0027061,42.979,312.6442,136.0993,51.8269,0,999,599,0.0014589,0.00454987,0.000085003,4915888,0 STARLINK-30163,1 57309U 23096V   25337.83335647  .00454987  85003-4  14589-2 0  9999,2 57309  42.9790 312.6442 0027061 136.0993  51.8269 15.89542667  5993,2023-096V,57309,6681.701,90.592,321.648,285.485,1
GENERATED VIA SPACETRACK.ORG API,18 SPCS,57309,STARLINK-30163,PAYLOAD,U,23096V,2025-12-04 00:00:02,160,15.897098145,0.0027179607,42.979081,311.61259,137.07228,285.80307,0,999,596,0.0013358547,0.0042020086,0.000073470038,4915962,0 STARLINK-30163,1 57309U 23096V   25338.00002315  .00420201  73470-4  13359-2 0  9993,2 57309  42.9791 311.6126 0027180 137.0723 285.8031 15.89709815  5969,2023-096V,57309,6681.233,90.583,321.257,284.938,1
GENERATED VIA SPACETRACK.ORG API,18 SPCS,57309,STARLINK-30163,PAYLOAD,U,23096V,2025-12-04 04:00:03,96,15.89965663,0.0026968,42.9787,310.5803,138.019,160.0996,0,999,599,0.0016488,0.00525627,0.00011251,4916312,0 STARLINK-30163,1 57309U 23096V   25338.16670139  .00525627  11251-3  16488-2 0  9997,2 57309  42.9787 310.5803 0026968 138.0190 160.0996 15.89965663  5998,2023-096V,57309,6680.516,90.568,320.397,284.365,1
GENERATED VIA SPACETRACK.ORG API,18 SPCS,57309,STARLINK-30163,PAYLOAD,U,23096V,2025-12-04 08:00:01,999872,15.901196404,0.0026826001,42.979092,309.54673,139.25385,34.019262,0,999,602,0.0018461951,0.0059316249,0.00014297297,4916482,0 STARLINK-30163,1 57309U 23096V   25338.33335648  .00593162  14297-3  18462-2 0  9995,2 57309  42.9791 309.5467 0026826 139.2539  34.0193 15.90119640  6022,2023-096V,57309,6680.085,90.559,319.870,284.030,1
GENERATED VIA SPACETRACK.ORG API,18 SPCS,57309,STARLINK-30163,PAYLOAD,U,23096V,2025-12-04 16:00:01,999584,15.906331815,0.0026807843,42.979069,307.4738,142.13958,142.07308,0,999,596,0.0017092719,0.0056396836,0.0001301572,4916542,0 STARLINK-30163,1 57309U 23096V   25338.66668981  .00563968  13016-3  17093-2 0  9998,2 57309  42.9791 307.4738 0026808 142.1396 142.0731 15.90633182  5966,2023-096V,57309,6678.647,90.530,318.416,282.608,1
GENERATED VIA SPACETRACK.ORG API,18 SPCS,57309,STARLINK-30163,PAYLOAD,U,23096V,2025-12-04 18:00:02,160,15.90707466,0.0026875,42.979,306.9563,142.9414,259.0744,0,999,597,0.0018349,0.00607908,0.00015122,4917085,0 STARLINK-30163,1 57309U 23096V   25338.75002315  .00607908  15122-3  18349-2 0  9999,2 57309  42.9790 306.9563 0026875 142.9414 259.0744 15.90707466  5979,2023-096V,57309,6678.439,90.526,318.252,282.356,1
GENERATED VIA SPACETRACK.ORG API,18 SPCS,57309,STARLINK-30163,PAYLOAD,U,23096V,2025-12-04 20:00:03,384,15.90800434,0.0026909,42.9787,306.4389,143.5222,16.3834,0,999,599,0.0018741,0.00623957,0.00015952,4917509,0 STARLINK-30163,1 57309U 23096V   25338.83336806  .00623957  15952-3  18741-2 0  9992,2 57309  42.9787 306.4389 0026909 143.5222  16.3834 15.90800434  5993,2023-096V,57309,6678.179,90.520,318.014,282.073,1
